[Satellite]
VERSION=1.1
NAME=ORBCOMM FM02 [-]
NICKNAME=ORBCOMM FM02 [-]
TLE1=1 23546U 95017B   17185.85878726  .00000262  00000-0  56234-4 0  9999
TLE2=2 23546  69.9726 306.9479 0009906 280.2291  79.7736 14.69655337184312
